ONEWEB-0456             
1 51646U 22012AA  25014.72320580  .00000523  00000+0  14618-2 0  9999
2 51646  87.8906 139.5271 0001577 113.4601 246.6693 13.10370904142737
ONEWEB-0457             
1 51647U 22012AB  25014.77630259  .00000287  00000+0  78720-3 0  9994
2 51647  87.8919 139.5575 0001739  91.7160 268.4167 13.10377899142757
ONEWEB-0458             
1 51648U 22012AC  25014.41611620  .00000539  00000+0  15069-2 0  9993
2 51648  87.8901 139.6335 0001417 104.2254 255.9031 13.10371193141369
ONEWEB-0461             
1 51649U 22012AD  25014.35723246  .00000016  00000+0  90927-5 0  9994
2 51649  87.9095 109.2217 0001797 103.0244 257.1088 13.17650956145560
ONEWEB-0463             
1 51650U 22012AE  25014.33866941 -.00000302  00000+0 -81120-3 0  9997
2 51650  87.9102 109.2817 0001705 101.3718 258.7605 13.17648908145345
ONEWEB-0464             
1 51651U 22012AF  25014.41279617  .00000689  00000+0  19360-2 0  9997
2 51651  87.8917 139.6364 0001512 119.6609 240.4669 13.10372245141389
ONEWEB-0468             
1 51652U 22012AG  25014.80120953  .00001465  00000+0  41601-2 0  9995
2 51652  87.8916 139.5519 0001559 106.6910 253.4389 13.10362394142706
ONEWEB-0473             
1 51653U 22012AH  25014.40448463  .00000772  00000+0  21755-2 0  9999
2 51653  87.8917 139.6336 0001422 106.3490 253.7794 13.10376297141366
ONEWEB-0474             
1 51654U 22012AJ  25014.77796062  .00000244  00000+0  66176-3 0  9992
2 51654  87.8911 139.5371 0001338 112.6720 247.4549 13.10377596142699
ONEWEB-0475             
1 51655U 22012AK  25014.27456395  .00000448  00000+0  11206-2 0  9999
2 51655  87.9116 109.2749 0000634 129.7019 230.4168 13.17645471145351
ONEWEB-0490             
1 54113U 22138A   25014.54771062  .00000026  00000+0  31751-4 0  9992
2 54113  87.9145  48.0700 0001751  99.5561 260.5770 13.19725032108423
ONEWEB-0492             
1 54114U 22138B   25014.57298628  .00000066  00000+0  13265-3 0  9991
2 54114  87.9149  48.0792 0001919 102.4090 257.7257 13.19726605108432
ONEWEB-0495             
1 54115U 22138C   25014.55087331  .00000013  00000+0  12408-5 0  9999
2 54115  87.9150  48.0953 0001427 118.8682 241.2594 13.19723409108415
ONEWEB-0497             
1 54116U 22138D   25014.56352666  .00000081  00000+0  16893-3 0  9992
2 54116  87.9145  48.0716 0001763  98.6558 261.4775 13.19722911108408
ONEWEB-0499             
1 54117U 22138E   25014.54613536  .00000038  00000+0  61814-4 0  9993
2 54117  87.9150  48.0858 0001432  87.2943 272.8354 13.19727435108413
ONEWEB-0500             
1 54118U 22138F   25014.62511045  .00000026  00000+0  33042-4 0  9994
2 54118  87.9146  48.0596 0001878  96.6681 263.4666 13.19726960109308
ONEWEB-0501             
1 54119U 22138G   25014.57930747  .00000078  00000+0  16352-3 0  9994
2 54119  87.9146  48.0642 0001414 106.4218 253.7070 13.19727064108400
ONEWEB-0502             
1 54120U 22138H   25014.56508445  .00000078  00000+0  16135-3 0  9990
2 54120  87.9144  48.0533 0001491  98.3142 261.8160 13.19726895108422
ONEWEB-0503             
1 54121U 22138J   25014.55402131  .00000034  00000+0  52545-4 0  9993
2 54121  87.9142  48.0612 0001695  84.8396 275.2930 13.19727623108419
ONEWEB-0504             
1 54122U 22138K   25014.54139657  .00000007  00000+0 -14822-4 0  9990
2 54122  87.9147  48.0748 0001435  93.5319 266.5978 13.19726657108421
ONEWEB-0505             
1 54123U 22138L   25014.53823271  .00000023  00000+0  25784-4 0  9998
2 54123  87.9145  48.0674 0001253 107.9918 252.1352 13.19727033108405
ONEWEB-0506             
1 54124U 22138M   25014.58877645  .00000035  00000+0  54609-4 0  9999
2 54124  87.9145  48.0541 0001646  99.9852 260.1467 13.19726280108401
ONEWEB-0507             
1 54125U 22138N   25014.60930879  .00000043  00000+0  75458-4 0  9996
2 54125  87.9153  48.0892 0001699 102.9217 257.2106 13.19726409108453
ONEWEB-0508             
1 54126U 22138P   25014.60614850  .00000043  00000+0  74037-4 0  9997
2 54126  87.9149  48.0773 0001654 109.4992 250.6319 13.19726877108430
ONEWEB-0509             
1 54127U 22138Q   25014.58089473 -.00000712  00000+0 -18105-2 0  9999
2 54127  87.9145  48.0550 0001635  97.9623 262.1696 13.19718706108406
ONEWEB-0510             
1 54128U 22138R   25014.50050167  .00000074  00000+0  14933-3 0  9995
2 54128  87.9249  17.6293 0002093  91.3270 268.8103 13.20773177110812
ONEWEB-0511             
1 54129U 22138S   25014.57772140  .00000051  00000+0  94648-4 0  9992
2 54129  87.9146  48.0600 0001608  85.1470 274.9846 13.19727211108436
ONEWEB-0512             
1 54130U 22138T   25014.56982267  .00000026  00000+0  31533-4 0  9992
2 54130  87.9151  48.0942 0001367 101.6566 258.4720 13.19726917108402
ONEWEB-0513             
1 54131U 22138U   25014.54060268 -.00000110  00000+0 -30658-3 0  9991
2 54131  87.9151  48.0895 0001241  92.0761 268.0514 13.19726048108280
ONEWEB-0514             
1 54132U 22138V   25014.58562404  .00000059  00000+0  11503-3 0  9993
2 54132  87.9145  48.0679 0001839  93.2632 266.8711 13.19726273108428
ONEWEB-0515             
1 54133U 22138W   25014.48787796  .00000041  00000+0  68387-4 0  9990
2 54133  87.9248  17.6095 0002789  95.8109 264.3342 13.20772873110839
ONEWEB-0516             
1 54134U 22138X   25014.56033962 -.00000075  00000+0 -21876-3 0  9999
2 54134  87.9152  48.0983 0001784 101.1525 258.9808 13.19727552108425
ONEWEB-0517             
1 54135U 22138Y   25014.53981212  .00000029  00000+0  40988-4 0  9990
2 54135  87.9145  48.0728 0001655  83.1083 277.0238 13.19726453108428
ONEWEB-0518             
1 54136U 22138Z   25014.55875975  .00000021  00000+0  19289-4 0  9993
2 54136  87.9151  48.0952 0001728  93.3099 266.8231 13.19727650108425
ONEWEB-0519             
1 54137U 22138AA  25014.58403898  .00000076  00000+0  15794-3 0  9994
2 54137  87.9146  48.0577 0001669  86.4240 273.7084 13.19726623108431
ONEWEB-0520             
1 54138U 22138AB  25014.54297068  .00000006  00000+0 -17232-4 0  9995
2 54138  87.9144  48.0695 0001559 106.8059 253.3245 13.19727029108416
ONEWEB-0521             
1 54139U 22138AC  25014.57613995  .00000060  00000+0  11708-3 0  9990
2 54139  87.9143  48.0524 0001888  86.7711 273.3638 13.19726687108364
ONEWEB-0522             
1 54140U 22138AD  25014.55562094  .00000036  00000+0  58627-4 0  9998
2 54140  87.9144  48.0581 0001811  99.0972 261.0366 13.19727471108401
ONEWEB-0523             
1 54141U 22138AE  25014.55100695  .00000073  00000+0  14670-3 0  9994
2 54141  87.9248  17.6265 0002684  81.4626 278.6812 13.20771608110842
ONEWEB-0524             
1 54142U 22138AF  25014.53996271  .00000021  00000+0  20243-4 0  9993
2 54142  87.9247  17.6311 0002674 103.4470 256.6961 13.20772559110842
ONEWEB-0525             
1 54143U 22138AG  25014.57455591 -.00000103  00000+0 -28922-3 0  9997
2 54143  87.9146  48.0689 0001498 102.6778 257.4522 13.19726024108429
ONEWEB-0526             
1 54144U 22138AH  25014.60773267  .00000002  00000+0 -26456-4 0  9993
2 54144  87.9144  48.0539 0001758  99.8392 260.2939 13.19726574108402
ONEWEB-0529             
1 54145U 22138AJ  25014.61089038  .00000020  00000+0  18522-4 0  9995
2 54145  87.9151  48.0838 0001629 102.8889 257.2425 13.19726192108420
ONEWEB-0531             
1 54146U 22138AK  25014.52575219 -.00000026  00000+0 -96717-4 0  9997
2 54146  87.9249  17.6267 0002794  87.8365 272.3088 13.20773329110840
ONEWEB-0535             
1 54147U 22138AL  25014.56824974  .00000038  00000+0  62763-4 0  9992
2 54147  87.9143  48.0584 0002078  92.5548 267.5823 13.19726541108432
ONEWEB-0536             
1 54148U 22138AM  25014.51313207  .00000057  00000+0  10886-3 0  9999
2 54148  87.9247  17.6762 0002875  90.1411 270.0051 13.20772415110838
ONEWEB-0527             
1 54642U 22166A   25014.42389689  .00000038  00000+0  60849-4 0  9990
2 54642  87.9312 347.3602 0001833  87.5360 272.5984 13.21827247103000
ONEWEB-0528             
1 54643U 22166B   25014.43019767  .00000027  00000+0  35098-4 0  9995
2 54643  87.9320 347.3531 0001732  87.3622 272.7710 13.21828686103016
ONEWEB-0539             
1 54644U 22166C   25014.46648618  .00000091  00000+0  18905-3 0  9990
2 54644  87.9318 347.3509 0001657  78.4292 281.7028 13.21827386103017
ONEWEB-0540             
1 54645U 22166D   25014.46095145  .00000014  00000+0  22438-5 0  9995
2 54645  87.9313 347.3583 0001697  77.4071 282.7252 13.21829435103009
ONEWEB-0542             
1 54646U 22166E   25014.47594104  .00000090  00000+0  18705-3 0  9990
2 54646  87.9320 347.3475 0001777  69.5613 290.5711 13.21827179103012
ONEWEB-0545             
1 54647U 22166F   25014.44282157 -.00000030  00000+0 -10528-3 0  9991
2 54647  87.9309 347.3543 0001471  65.2993 294.8294 13.21825798102973
ONEWEB-0580             
1 54648U 22166G   25014.41602400  .00000087  00000+0  18026-3 0  9997
2 54648  87.9317 347.3440 0001863  70.2746 289.8588 13.21826803103010
ONEWEB-0582             
1 54649U 22166H   25014.45858668 -.00000009  00000+0 -54120-4 0  9993
2 54649  87.9313 347.3664 0001900  64.0926 296.0404 13.21828122102997
ONEWEB-0583             
1 54650U 22166J   25014.46965048  .00000063  00000+0  12058-3 0  9998
2 54650  87.9311 347.3609 0001710  80.4602 279.6725 13.21827653103002
ONEWEB-0584             
1 54651U 22166K   25014.41443884  .00000052  00000+0  95405-4 0  9999
2 54651  87.9320 347.3481 0001972  70.3130 289.8217 13.21828032102982
ONEWEB-0585             
1 54652U 22166L   25014.43967603  .00000017  00000+0  98339-5 0  9993
2 54652  87.9305 347.3469 0001848  85.4342 274.7003 13.21827027102996
ONEWEB-0586             
1 54653U 22166M   25014.45231531 -.00000015  00000+0 -67454-4 0  9993
2 54653  87.9312 347.3561 0001740  76.8505 283.2823 13.21828988102996
ONEWEB-0587             
1 54654U 22166N   25014.46174728 -.00000049  00000+0 -15008-3 0  9993
2 54654  87.9311 347.3058 0001864  90.0070 270.1278 13.21824548103155
